OBJECT_NAME,OBJECT_ID,EPOCH,MEAN_MOTION,ECCENTRICITY,INCLINATION,RA_OF_ASC_NODE,ARG_OF_PERICENTER,MEAN_ANOMALY,EPHEMERIS_TYPE,CLASSIFICATION_TYPE,NORAD_CAT_ID,ELEMENT_SET_NO,REV_AT_EPOCH,BSTAR,MEAN_MOTION_DOT,MEAN_MOTION_DDOT
GSAT0216 (GALILEO 20),2017-079B,2026-07-14T06:56:45.569184,1.70474452,.0004886,55.0681,220.7605,277.2528,82.7589,0,U,43056,999,5346,0,.67E-6,0
GSAT0217 (GALILEO 21),2017-079C,2026-07-13T22:10:03.005760,1.70474255,.00051779,55.0663,220.7682,287.6925,72.3210,0,U,43057,999,5344,0,.71E-6,0
GSAT0218 (GALILEO 22),2017-079D,2026-07-14T03:26:57.361344,1.70474358,.00054033,55.0664,220.7598,274.9614,85.0453,0,U,43058,999,5347,0,.68E-6,0
BEIDOU-3 M7 (C27),2018-003A,2026-07-13T02:59:29.302944,1.86228081,.00044252,54.3034,301.4109,99.0541,261.0198,0,U,43107,999,5783,0,-.66E-6,0
BEIDOU-3 M8 (C28),2018-003B,2026-07-14T03:25:48.314784,1.86230956,.00030547,54.2952,301.3566,257.2300,102.7635,0,U,43108,999,5786,0,-.67E-6,0
BEIDOU-3 M4 (C22),2018-018A,2026-07-14T01:10:47.823168,1.86230755,.0007446,56.6746,62.2635,28.6093,331.5057,0,U,43207,999,5724,0,-.38E-6,0
BEIDOU-3 M3 (C21),2018-018B,2026-07-13T01:00:06.780960,1.86230649,.0007681,56.6731,62.3007,347.0461,13.0059,0,U,43208,999,5722,0,-.39E-6,0
BEIDOU-3 M9 (C29),2018-029A,2026-07-14T08:00:26.559072,1.86227870,.0001237,54.1675,298.9986,187.3558,172.6749,0,U,43245,999,5640,0,-.63E-6,0
BEIDOU-3 M10 (C30),2018-029B,2026-07-14T06:25:42.900096,1.86229100,.0003254,54.1653,299.0279,37.5174,322.5374,0,U,43246,999,5638,0,-.63E-6,0
IRNSS-1I,2018-035A,2026-07-14T18:09:38.632896,1.00277502,.0018228,28.8169,73.7659,177.7601,8.6215,0,U,43286,999,3035,0,.54E-6,0
COSMOS 2527 (756),2018-053A,2026-07-14T07:14:45.547584,2.13102086,.0006413,65.5923,73.0036,229.6749,130.3442,0,U,43508,999,6285,0,-.8E-7,0
BEIDOU-2 IGSO-7 (C16),2018-057A,2026-07-01T21:23:21.693984,1.00246939,.01049468,55.1981,162.9292,237.8611,308.6338,0,U,43539,999,2927,0,-.33E-6,0
GSAT0221 (GALILEO 25),2018-060A,2026-07-14T01:08:49.778304,1.70476069,.0002663,57.1598,341.0559,285.3829,74.5732,0,U,43564,999,4962,0,-.96E-6,0
GSAT0222 (GALILEO 26),2018-060B,2026-07-13T16:20:30.695712,1.70475786,.00027814,57.1635,341.0695,235.2693,124.6907,0,U,43565,999,4966,0,-.95E-6,0
GSAT0219 (GALILEO 23),2018-060C,2026-07-13T07:33:51.996096,1.70476015,.00018106,57.1630,341.0808,299.7576,60.2111,0,U,43566,999,4963,0,-.93E-6,0
GSAT0220 (GALILEO 24),2018-060D,2026-07-13T12:52:06.984480,1.70475652,.00021293,57.1625,341.0748,291.2422,68.7213,0,U,43567,999,4962,0,-.94E-6,0
BEIDOU-3 M5 (C23),2018-062A,2026-07-12T08:15:17.978112,1.86228464,.00056966,54.0867,181.4489,292.2984,67.6347,0,U,43581,999,5410,0,.77E-6,0
BEIDOU-3 M6 (C24),2018-062B,2026-07-14T08:31:42.591648,1.86227860,.00052328,54.0858,181.3698,9.8784,350.1097,0,U,43582,999,5414,0,.47E-6,0
BEIDOU-3 M12 (C26),2018-067A,2026-07-14T07:03:03.527712,1.86227611,.00079056,54.1815,180.1212,30.2699,329.7517,0,U,43602,999,5362,0,.46E-6,0
BEIDOU-3 M11 (C25),2018-067B,2026-07-13T08:31:13.710720,1.86227041,.00045981,54.1790,180.1167,13.0859,346.9088,0,U,43603,999,5363,0,.58E-6,0
BEIDOU-3 M13 (C32),2018-072A,2026-07-13T20:19:15.504672,1.86231187,.00062359,56.6475,61.7808,333.7731,26.2691,0,U,43622,999,5315,0,-.39E-6,0
BEIDOU-3 M14 (C33),2018-072B,2026-07-14T05:58:41.454624,1.86231229,.00055358,56.6499,61.7618,10.9720,349.1146,0,U,43623,999,5315,0,-.39E-6,0
BEIDOU-3 M16 (C35),2018-078A,2026-07-13T07:55:22.901088,1.86232180,.00066502,54.0645,299.0691,39.9150,320.1624,0,U,43647,999,5264,0,-.62E-6,0
BEIDOU-3 M15 (C34),2018-078B,2026-07-13T23:54:44.063712,1.86232312,.00035359,54.0596,299.0458,57.7784,302.2870,0,U,43648,999,5267,0,-.63E-6,0
BEIDOU-3 G1 (C59),2018-085A,2026-07-14T19:18:33.772320,1.00272514,.0008003,2.9354,96.6255,356.2807,289.3566,0,U,43683,999,2833,0,-.12E-5,0
COSMOS 2529 (757),2018-086A,2026-07-11T02:43:12.569952,2.13101972,.00121111,64.2969,191.7864,256.4030,103.4921,0,U,43687,999,5979,0,.113E-5,0
BEIDOU-3 M17 (C36),2018-093A,2026-07-14T10:14:50.563968,1.86228278,.00101214,54.1701,181.3721,294.2367,245.8678,0,U,43706,999,5204,0,.46E-6,0
BEIDOU-3 M18 (C37),2018-093B,2026-07-14T00:31:26.777280,1.86226640,.00080814,54.1709,181.3784,322.4922,37.4315,0,U,43707,999,5203,0,.51E-6,0
GPS BIII-1  (PRN 04),2018-109A,2026-07-14T15:13:17.483232,2.00562699,.0038552,55.6982,91.1036,197.1681,304.6154,0,U,43873,999,5562,0,-.24E-6,0
BEIDOU-3 IGSO-1 (C38),2019-023A,2026-07-13T11:51:18.021312,1.00283496,.00257348,58.7323,37.3789,224.1077,326.8166,0,U,44204,999,747,0,-.204E-5,0
BEIDOU-2 G8 (C01),2019-027A,2026-07-14T19:14:11.690880,1.00271788,.0009723,1.7252,74.4886,282.0956,9.1465,0,U,44231,999,2635,0,-.257E-5,0
